1 42002U 17008BG  20152.14148492  .00002296  00000-0  86754-4 0  9990
2 42002  97.3653 221.2093 0007672  23.4037 336.7550 15.27993697183024
1 42002U 17008BG  20152.20697196  .00002567  00000-0  96660-4 0  9995
2 42002  97.3653 221.2740 0007666  23.1791 336.9793 15.27995030183035
1 42002U 17008BG  20152.86184560  .00002347  00000-0  88598-4 0  9990
2 42002  97.3654 221.9213 0007590  21.1260 339.0292 15.27997101183133
1 42002U 17008BG  20153.45123015  .00002379  00000-0  89754-4 0  9994
2 42002  97.3654 222.5039 0007524  19.1717 340.9804 15.28000151183228
1 42002U 17008BG  20153.84415270  .00002306  00000-0  87091-4 0  9996
2 42002  97.3655 222.8923 0007476  17.8368 342.3133 15.28001881183285
1 42002U 17008BG  20154.49902181  .00002536  00000-0  95488-4 0  9994
2 42002  97.3655 223.5395 0007391  15.5663 344.5802 15.28006252183380
1 42002U 17008BG  20154.76096911  .00002494  00000-0  93942-4 0  9995
2 42002  97.3655 223.7984 0007361  14.6323 345.5128 15.28007590183429
1 42002U 17008BG  20154.82645588  .00002465  00000-0  92880-4 0  9990
2 42002  97.3655 223.8631 0007359  14.3726 345.7721 15.28007852183433
1 42002U 17008BG  20155.35034938  .00002502  00000-0  94239-4 0  9992
2 42002  97.3656 224.3810 0007303  12.5701 347.5719 15.28011014183512
1 42002U 17008BG  20155.80875545  .00002459  00000-0  92642-4 0  9996
2 42002  97.3656 224.8342 0007262  10.9936 349.1461 15.28013503183587
1 42002U 17008BG  20156.26716079  .00002407  00000-0  90754-4 0  9998
2 42002  97.3655 225.2873 0007206   9.3926 350.7447 15.28015897183657
1 42002U 17008BG  20156.79105199  .00002382  00000-0  89818-4 0  9992
2 42002  97.3655 225.8051 0007136   7.6247 352.5099 15.28018447183736
1 42002U 17008BG  20157.31494198  .00002513  00000-0  94617-4 0  9990
2 42002  97.3654 226.3230 0007077   5.7361 354.3958 15.28021652183815
1 42002U 17008BG  20157.44591459  .00002390  00000-0  90107-4 0  9995
2 42002  97.3655 226.4525 0007069   5.2838 354.8475 15.28021809183834
1 42002U 17008BG  20157.70785927  .00002330  00000-0  87903-4 0  9993
2 42002  97.3654 226.7114 0007038   4.3368 355.7931 15.28023067183873
1 42002U 17008BG  20158.42820576  .00002366  00000-0  89223-4 0  9999
2 42002  97.3653 227.4235 0006959   1.6658 358.4603 15.28026923183989
1 42002U 17008BG  20158.69014964  .00002277  00000-0  85957-4 0  9995
2 42002  97.3652 227.6824 0006934   0.6880 359.4368 15.28028008184024
1 42002U 17008BG  20159.27952272  .00002011  00000-0  76227-4 0  9999
2 42002  97.3651 228.2650 0006879 358.5222   1.5996 15.28029914184119
1 42002U 17008BG  20159.67243741  .00002134  00000-0  80744-4 0  9992
2 42002  97.3650 228.6534 0006835 357.1560   2.9640 15.28032160184179
1 42002U 17008BG  20160.13083749  .00002145  00000-0  81118-4 0  9993
2 42002  97.3649 229.1065 0006791 355.4796   4.6381 15.28034159184244
1 42002U 17008BG  20160.26180843  .00002675  00000-0  10049-3 0  9992
2 42002  97.3649 229.2360 0006776 354.9972   5.1199 15.28036578184268
1 42002U 17008BG  20160.78569371  .00002304  00000-0  86938-4 0  9996
2 42002  97.3648 229.7538 0006713 353.1081   7.0066 15.28037493184342
1 42002U 17008BG  20161.30957774  .00002183  00000-0  82511-4 0  9991
2 42002  97.3647 230.2717 0006654 351.0993   9.0128 15.28039427184429
1 42002U 17008BG  20161.44054865  .00002151  00000-0  81325-4 0  9992
2 42002  97.3647 230.4012 0006632 350.6176   9.4939 15.28039882184444
1 42002U 17008BG  20161.76797564  .00002162  00000-0  81740-4 0  9990
2 42002  97.3646 230.7248 0006592 349.3207  10.7892 15.28041433184495
1 42002U 17008BG  20162.22637247  .00002435  00000-0  91712-4 0  9996
2 42002  97.3645 231.1780 0006548 347.4815  12.6260 15.28044597184567
1 42002U 17008BG  20162.68476922  .00002182  00000-0  82472-4 0  9999
2 42002  97.3645 231.6310 0006500 345.7304  14.3751 15.28045885184636
1 42002U 17008BG  20163.20864996  .00002281  00000-0  86078-4 0  9996
2 42002  97.3645 232.1490 0006457 343.6332  16.4698 15.28048744184719
1 42002U 17008BG  20164.12543975  .00002251  00000-0  84958-4 0  9991
2 42002  97.3645 233.0552 0006356 340.0582  20.0408 15.28052783184857
1 42002U 17008BG  20164.25640957  .00002147  00000-0  81144-4 0  9991
2 42002  97.3645 233.1847 0006341 339.5311  20.5674 15.28053047184878
1 42002U 17008BG  20164.71480341  .00002154  00000-0  81415-4 0  9990
2 42002  97.3645 233.6378 0006293 337.7265  22.3701 15.28055162184945
1 42002U 17008BG  20165.43513527  .00002107  00000-0  79692-4 0  9995
2 42002  97.3646 234.3498 0006218 334.7760  25.3175 15.28058262185056
1 42002U 17008BG  20165.76255855  .00002006  00000-0  75983-4 0  9995
2 42002  97.3646 234.6735 0006190 333.4109  26.6812 15.28059389185104
1 42002U 17008BG  20166.15546589  .00002003  00000-0  75872-4 0  9990
2 42002  97.3646 235.0618 0006161 331.7761  28.3144 15.28061135185167
1 42002U 17008BG  20166.61385770  .00001792  00000-0  68163-4 0  9993
2 42002  97.3647 235.5148 0006114 329.8709  30.2178 15.28062257185232
1 42002U 17008BG  20166.74482670  .00001776  00000-0  67566-4 0  9992
2 42002  97.3647 235.6443 0006103 329.3267  30.7615 15.28062670185255
1 42002U 17008BG  20167.46515524  .00001827  00000-0  69433-4 0  9999
2 42002  97.3647 236.3563 0006036 326.3198  33.7657 15.28065461185363
1 42002U 17008BG  20167.72709301  .00001868  00000-0  70943-4 0  9999
2 42002  97.3648 236.6151 0006057 325.1551  34.9291 15.28066306185404
1 42002U 17008BG  20167.85806155  .00001888  00000-0  71650-4 0  9996
2 42002  97.3648 236.7446 0006045 324.6080  35.4757 15.28066926185423
1 42002U 17008BG  20168.18548315  .00001867  00000-0  70915-4 0  9994
2 42002  97.3648 237.0682 0006022 323.2199  36.8627 15.28068041185476
1 42002U 17008BG  20168.90580952  .00001782  00000-0  67779-4 0  9997
2 42002  97.3648 237.7803 0005956 320.1437  39.9364 15.28070317185587
1 42002U 17008BG  20169.16774596  .00001788  00000-0  68012-4 0  9992
2 42002  97.3648 238.0392 0005942 319.0385  41.0408 15.28071354185628
1 42002U 17008BG  20169.49516679  .00001662  00000-0  63406-4 0  9997
2 42002  97.3649 238.3628 0005909 317.6449  42.4334 15.28071787185670
1 42002U 17008BG  20169.75710306  .00001625  00000-0  62058-4 0  9990
2 42002  97.3648 238.6217 0005892 316.5089  43.5686 15.28072572185715
1 42002U 17008BG  20170.15000733  .00001605  00000-0  61311-4 0  9991
2 42002  97.3648 239.0101 0005873 314.8179  45.2583 15.28073772185776
1 42002U 17008BG  20170.73936244  .00001707  00000-0  65036-4 0  9991
2 42002  97.3648 239.5926 0005826 312.2790  47.7955 15.28076498185863
1 42002U 17008BG  20171.26323372  .00001715  00000-0  65321-4 0  9998
2 42002  97.3647 240.1104 0005796 309.9582  50.1148 15.28078163185948
1 42002U 17008BG  20171.85258808  .00001646  00000-0  62813-4 0  9990
2 42002  97.3647 240.6930 0005758 307.3176  52.7538 15.28079783186030
1 42002U 17008BG  20171.91807180  .00001654  00000-0  63113-4 0  9993
2 42002  97.3647 240.7577 0005754 306.9999  53.0714 15.28080055186047
1 42002U 17008BG  20172.44194114  .00001740  00000-0  66238-4 0  9995
2 42002  97.3647 241.2756 0005726 304.6031  55.4668 15.28082389186128
1 42002U 17008BG  20172.76935938  .00001723  00000-0  65620-4 0  9992
2 42002  97.3647 241.5992 0005707 303.1693  56.8999 15.28083452186179
1 42002U 17008BG  20173.09677720  .00001770  00000-0  67307-4 0  9997
2 42002  97.3647 241.9228 0005692 301.6528  58.4156 15.28084836186224
1 42002U 17008BG  20173.42419488  .00001792  00000-0  68115-4 0  9991
2 42002  97.3647 242.2465 0005671 300.1943  59.8735 15.28086091186271
1 42002U 17008BG  20173.62064549  .00001707  00000-0  65010-4 0  9994
2 42002  97.3647 242.4407 0005661 299.2802  60.7871 15.28086343186306
1 42002U 17008BG  20174.14451307  .00001713  00000-0  65251-4 0  9998
2 42002  97.3646 242.9585 0005639 296.9311  63.1352 15.28088167186386
1 42002U 17008BG  20174.66838035  .00001686  00000-0  64241-4 0  9999
2 42002  97.3646 243.4763 0005611 294.5194  65.5460 15.28089785186465
1 42002U 17008BG  20175.19224669  .00001669  00000-0  63634-4 0  9996
2 42002  97.3646 243.9942 0005594 292.0811  67.9834 15.28091549186549
1 42002U 17008BG  20175.58514621  .00001628  00000-0  62123-4 0  9996
2 42002  97.3646 244.3826 0005576 290.1896  69.8743 15.28092666186605
1 42002U 17008BG  20176.43642701  .00001648  00000-0  62863-4 0  9995
2 42002  97.3646 245.2241 0005544 286.2523  73.8106 15.28095794186731
1 42002U 17008BG  20176.76384245  .00001623  00000-0  61916-4 0  9998
2 42002  97.3647 245.5478 0005543 284.7562  75.3063 15.28096750186789
1 42002U 17008BG  20177.41867271  .00001612  00000-0  61543-4 0  9990
2 42002  97.3646 246.1951 0005531 281.7278  78.3341 15.28098856186881
1 42002U 17008BG  20177.68060470  .00001565  00000-0  59795-4 0  9998
2 42002  97.3646 246.4540 0005534 280.5361  79.5255 15.28099424186925
1 42002U 17008BG  20178.46639913  .00001619  00000-0  61760-4 0  9994
2 42002  97.3646 247.2307 0005522 276.8239  83.2372 15.28102321187041
1 42002U 17008BG  20178.72833067  .00001544  00000-0  59026-4 0  9998
2 42002  97.3646 247.4897 0005525 275.5364  84.5245 15.28102708187081
1 42002U 17008BG  20179.77605356  .00001669  00000-0  63579-4 0  9998
2 42002  97.3645 248.5254 0005531 270.5262  89.5344 15.28107017187249
1 42002U 17008BG  20180.16894920  .00001690  00000-0  64345-4 0  9996
2 42002  97.3645 248.9137 0005534 268.7289  91.3317 15.28108448187301
1 42002U 17008BG  20180.69280966  .00001647  00000-0  62767-4 0  9991
2 42002  97.3645 249.4315 0005540 266.3265  93.7341 15.28109944187383
1 42002U 17008BG  20181.15118664  .00001686  00000-0  64211-4 0  9997
2 42002  97.3644 249.8847 0005547 264.2461  95.8146 15.28111793187457
1 42002U 17008BG  20182.46083340  .00001735  00000-0  65999-4 0  9993
2 42002  97.3644 251.1791 0005577 257.9346 102.1268 15.28116515187651
1 42002U 17008BG  20182.78824475  .00001665  00000-0  63441-4 0  9992
2 42002  97.3644 251.5027 0005592 256.3920 103.6697 15.28117206187701
1 42002U 17008BG  20183.44306604  .00001694  00000-0  64481-4 0  9992
2 42002  97.3644 252.1500 0005620 253.4306 106.6317 15.28119686187809
